CCSDS_OEM_VERS = 2.0  
CREATION_DATE  = 2026-05-08T15:37:15
ORIGINATOR     = ESOC/OPS-GFA                            
 
 



META_START
OBJECT_NAME          = LISA                                    
OBJECT_ID            = -1000                                   
CENTER_NAME          = SUN                     
REF_FRAME            = EME2000 
TIME_SYSTEM          = TCB
START_TIME           = 2036-12-23T00:00:30.346418            
STOP_TIME            = 2047-09-07T04:13:13.739509            
INTERPOLATION        = HERMITE                                 
INTERPOLATION_DEGREE = 7                                       
META_STOP

2038-07-14T23:48:47.092471     5.63685274154942110e+06   -1.37148774469549030e+08   -5.94184888609417528e+07    2.97582123239572240e+01    1.25836721310031008e+00    2.74472960739262861e-01   -2.23388375118813231e-07    5.43930089580681257e-06    2.35652888859016256e-06
2038-07-15T19:56:41.237698     7.79289211899894103e+06   -1.37043292823319823e+08   -5.93924081945328489e+07    2.97389214532134467e+01    1.65247168040211001e+00    4.45243426438991730e-01   -3.08960054782040128e-07    5.43623610312361761e-06    2.35597932463790680e-06
2038-07-16T16:04:35.382927     9.94730872022508830e+06   -1.36909257886186808e+08   -5.93539529804683700e+07    2.97134297978989430e+01    2.04631293012708815e+00    6.15956263715517816e-01   -3.94502550570492391e-07    5.43203710374482260e-06    2.35493853312956048e-06
2038-07-17T12:12:29.528155     1.20996532394872308e+07   -1.36746691714383334e+08   -5.93031286859901249e+07    2.96817401205466069e+01    2.43980875867150093e+00    7.86575864126233482e-01   -4.79997991741191285e-07    5.42670385667303679e-06    2.35340633426123268e-06
2038-07-18T08:20:23.673383     1.42494766050012782e+07   -1.36555622293334514e+08   -5.92399433470240161e+07    2.96438564795758701e+01    2.83287696812056744e+00    9.57066609940258939e-01   -5.65428488256924385e-07    5.42023655850350270e-06    2.35138265091803846e-06
2038-07-19T04:28:17.818610     1.63963300758311786e+07   -1.36336083541919529e+08   -5.91644075709037706e+07    2.95997842305692984e+01    3.22543538311768874e+00    1.12739288143018346e+00   -6.50776134121191052e-07    5.41263563312937374e-06    2.34886750424451505e-06
2038-07-20T00:36:11.963838     1.85397653466884457e+07   -1.36088115331704110e+08   -5.90765345456469432e+07    2.95495300273124570e+01    3.61740186685022813e+00    1.29751906378322346e+00   -7.36023010580304240e-07    5.40390171764784407e-06    2.34586100756911081e-06
2038-07-20T20:44:06.109066     2.06793346628810577e+07   -1.35811763525855392e+08   -5.89763400578433350e+07    2.94931018226067039e+01    4.00869433587618840e+00    1.46740955351246560e+00   -8.21151189184282225e-07    5.39403564449820833e-06    2.34236335869472295e-06
2038-07-21T16:52:00.254293     2.28145909476533607e+07   -1.35507080042451411e+08   -5.88638425212160349e+07    2.94305088688647665e+01    4.39923077351671488e+00    1.63702876424878641e+00   -9.06142734723242263e-07    5.38303841969102440e-06    2.33837483049572338e-06
2038-07-22T12:56:40.568451     2.49393965630451925e+07   -1.35175050836614460e+08   -5.87394129884516001e+07    2.93619537784754492e+01    4.78788820607522680e+00    1.80588875654785364e+00   -9.90753050342199035e-07    5.37094568116397426e-06    2.33390862853115124e-06
2038-07-23T09:01:20.882609     2.70590261249628216e+07   -1.34814961929628760e+08   -5.86027902995596081e+07    2.92872891207243171e+01    5.17563100951777422e+00    1.97440831701285191e+00   -1.07519182080046696e-06    5.35773088856775919e-06    2.32895516872445379e-06
2038-07-24T05:06:01.196767     2.91730385176134929e+07   -1.34426882381533921e+08   -5.84540003425824791e+07    2.92065279366674950e+01    5.56237814945348674e+00    2.14255225012236350e+00   -1.15944128832103239e-06    5.34339595487019834e-06    2.32351511809429029e-06
2038-07-25T01:10:41.510923     3.12809935759177767e+07   -1.34010887059472382e+08   -5.82930715278984383e+07    2.91196845510750748e+01    5.94804873667386058e+00    2.31028541155617573e+00   -1.24348369196578534e-06    5.32794298781547719e-06    2.31758922789563362e-06
2038-07-25T21:15:21.825081     3.33824522106415965e+07   -1.33567056666088760e+08   -5.81200348016491979e+07    2.90267745723020667e+01    6.33256204192902139e+00    2.47757271458907713e+00   -1.32730127733433900e-06    5.31137430851479958e-06    2.31117834175217679e-06
2038-07-26T17:20:02.139239     3.54769765181340724e+07   -1.33095477747971922e+08   -5.79349236503896937e+07    2.89278148914992066e+01    6.71583751191100831e+00    2.64437913701296523e+00   -1.41087630513889862e-06    5.29369246635776916e-06    2.30428340218703953e-06
2038-07-27T13:24:42.453396     3.75641298780351207e+07   -1.32596242688237488e+08   -5.77377740987641364e+07    2.88228236812444614e+01    7.09779478618209936e+00    2.81066972847319096e+00   -1.49419105865841543e-06    5.27490025025146963e-06    2.29690545555470914e-06
2038-07-28T09:29:22.767554     3.96434770422966927e+07   -1.32069449687348723e+08   -5.75286247020124719e+07    2.87118203936763372e+01    7.47835371478243793e+00    2.97640961810346649e+00   -1.57722785006919256e-06    5.25500069617551165e-06    2.28904565536911635e-06
2038-07-29T05:34:03.081711     4.17145842188614011e+07   -1.31515202736274496e+08   -5.73075165351116285e+07    2.85948257582100851e+01    7.85743437625124308e+00    3.14156402234361742e+00   -1.65996902565678211e-06    5.23399709107361471e-06    2.28070526403673081e-06
2038-07-30T01:38:43.395869     4.37770191533420980e+07   -1.30933611586082339e+08   -5.70744931803558990e+07    2.84718617789178268e+01    8.23495709579583846e+00    3.30609825282454795e+00   -1.74239696990125783e-06    5.21189297304816637e-06    2.27188565298031681e-06
2038-07-30T21:43:23.710026     4.58303512120465115e+07   -1.30324791718065187e+08   -5.68296007151805907e+07    2.83429517316537449e+01    8.61084246334283243e+00    3.46997772420465900e+00   -1.82449410844773725e-06    5.18869212790457772e-06    2.26258830117335754e-06
2038-07-31T17:48:04.024184     4.78741514696902707e+07   -1.29688864318499923e+08   -5.65728877020334750e+07    2.82081201610053505e+01    8.98501135120564420e+00    3.63316796184210311e+00   -1.90624290994994339e-06    5.16439858200690437e-06    2.25281479206860557e-06
2038-08-01T13:52:44.338341     4.99079928051423505e+07   -1.29025956262136161e+08   -5.63044051820980906e+07    2.80673928771519670e+01    9.35738493110269332e+00    3.79563460918714579e+00   -1.98762588678864307e-06    5.13901659142568656e-06    2.24256680891273413e-06
2038-08-02T09:57:24.652499     5.19314500085465908e+07   -1.28336200108513638e+08   -5.60242066746733487e+07    2.79207969527114628e+01    9.72788469026056646e+00    3.95734343477894823e+00   -2.06862559468276559e-06    5.11255062748971350e-06    2.23184612849482691e-06
2038-08-03T06:02:04.966656     5.39440999031630903e+07   -1.27619734115206420e+08   -5.57323481840137392e+07    2.77683607196563145e+01    1.00964324463362480e+01    4.11826033873112873e+00   -2.14922463116427208e-06    5.08500535858718672e-06    2.22065461326269009e-06
2038-08-04T02:06:45.280814     5.59455214852730781e+07   -1.26876702272092357e+08   -5.54288882154343203e+07    2.76101137663801204e+01    1.04629503608929575e+01    4.27835135859032611e+00   -2.22940563292643624e-06    5.05638562826237306e-06    2.20899420182582110e-06
2038-08-04T22:15:30.048464     5.79420051072155684e+07   -1.26104607208086148e+08   -5.51128028588263616e+07    2.74455224167327074e+01    1.08285897490714369e+01    4.43811970849275905e+00   -2.30942037424471785e-06    5.02659474302930264e-06    2.19682532478148344e-06
2038-08-05T18:24:14.816115     5.99263417520560026e+07   -1.25306073532961369e+08   -5.47851627590953186e+07    2.72751444340370988e+01    1.11920296918120812e+01    4.59698853941297525e+00   -2.38897949720445085e-06    4.99573294387057628e-06    2.18418874514754544e-06
2038-08-06T14:32:59.583765     6.18981129870149940e+07   -1.24481263588777468e+08   -5.44460343889803812e+07    2.70990134880004661e+01    1.15531927308520412e+01    4.75492401632438622e+00   -2.46806574297176803e-06    4.96380604004499917e-06    2.17108682044744547e-06
2038-08-07T10:41:44.351416     6.38569028156771585e+07   -1.23630345282589540e+08   -5.40954866522626728e+07    2.69171644983407887e+01    1.19120018363194919e+01    4.91189247825767250e+00   -2.54666190184953538e-06    4.93082003909609910e-06    2.15752199448647944e-06
2038-08-08T06:50:29.119068     6.58022978118583411e+07   -1.22753492087750286e+08   -5.37335908855441287e+07    2.67296336306570765e+01    1.22683804217406838e+01    5.06786044483428633e+00   -2.62475082849371664e-06    4.89678116345208078e-06    2.14349680466464785e-06
2038-08-09T02:59:13.886718     6.77338872325134426e+07   -1.21850883028329685e+08   -5.33604208525294736e+07    2.65364582912764995e+01    1.26222523601214167e+01    5.22279462327359756e+00   -2.70231545494206485e-06    4.86169586355271388e-06    2.12901388776822876e-06
2038-08-09T23:07:58.654369     6.96512631141915470e+07   -1.20922702650072828e+08   -5.29760527323325574e+07    2.63376771212357745e+01    1.29735420008548665e+01    5.37666191576502239e+00   -2.77933880146080397e-06    4.82557082751180204e-06    2.11407598424377474e-06
2038-08-10T19:16:43.422019     7.15540203575255424e+07   -1.19969140981321961e+08   -5.25805651033305526e+07    2.61333299895552287e+01    1.33221741872040873e+01    5.52942942709489849e+00   -2.85580398520407331e-06    4.78841298730339742e-06    2.09868594094934240e-06
2038-08-11T15:25:28.189671     7.34417568042434156e+07   -1.18990393487328425e+08   -5.21740389240894243e+07    2.59234579859639744e+01    1.36680742741075498e+01    5.68106447241786139e+00   -2.93169422668999245e-06    4.75022952148247473e-06    2.08284671238783588e-06
